{"generator":"Hootenanny","type":"FeatureCollection","bbox": [-71.485, 42.472, -71.45, 42.5],"features": [
{"type":"Feature","properties":{"addr:country":"US","gnis:county_name":"Middlesex","source":"USGS Geonames","amenity":"library","addr:street":"Windsor Avenue","addr:state":"MA","ele":"71","name":"Citizens' Library","note":"branch library of town government","addr:city":"Acton","source_url":"http://mass.gov/mgis/libraries.htm","addr:housenumber":"21","attribution":"Office of Geographic and Environmental Information (MassGIS)","gnis:feature_id":"1972322","gnis:import_uuid":"57871b70-0100-4405-bb30-88b2e001a944"},"geometry": {"type":"Point","coordinates": [-71.47365000000001, 42.47539]}},
{"type":"Feature","properties":{"type":"School","amenity":"library","created_by":"JOSM","address":"15 Charter Road, Acton MA 01720","name":"Library","office":"Merriam School","region":"Metrowest","source_url":"http://mass.gov/mgis/libraries.htm","attribution":"Office of Geographic and Environmental Information (MassGIS)"},"geometry": {"type":"Point","coordinates": [-71.4555629, 42.4777669]}},
{"type":"Feature","properties":{"type":"School","amenity":"library","created_by":"JOSM","address":"96 Hayward Road, Acton MA 01720","name":"Library","office":"Acton-Boxborough Regional High School","region":"Metrowest","source_url":"http://mass.gov/mgis/libraries.htm","attribution":"Office of Geographic and Environmental Information (MassGIS)"},"geometry": {"type":"Point","coordinates": [-71.4581847, 42.4797935]}},
{"type":"Feature","properties":{"type":"School","amenity":"library","created_by":"JOSM","address":"16 Charter Road, Acton MA 00","name":"Library","office":"R. J. Grey Jr. High School","region":"Metrowest","source_url":"http://mass.gov/mgis/libraries.htm","attribution":"Office of Geographic and Environmental Information (MassGIS)"},"geometry": {"type":"Point","coordinates": [-71.45775140000001, 42.4769103]}},
{"type":"Feature","properties":{"amenity":"place_of_worship","ele":"68","name":"Mount Calvary Church","religion":"christian","gnis:state_id":"25","gnis:feature_id":"601563","gnis:county_id":"017","gnis:created":"08/27/2002"},"geometry": {"type":"Point","coordinates": [-71.4606187, 42.4750929]}},
{"type":"Feature","properties":{"ele":"65","name":"WHAB-FM (Acton)","man_made":"tower","gnis:state_id":"25","gnis:feature_id":"618930","gnis:county_id":"017","gnis:created":"08/01/1994"},"geometry": {"type":"Point","coordinates": [-71.4572853, 42.4800929]}},
{"type":"Feature","properties":{"gnis:county_name":"Middlesex","source":"USGS Geonames","addr:state":"MA","ele":"66","name":"Hosmer House Museum","tourism":"museum","gnis:reviewed":"no","gnis:feature_id":"1972880","gnis:import_uuid":"57871b70-0100-4405-bb30-88b2e001a944"},"geometry": {"type":"Point","coordinates": [-71.45145170000001, 42.4764819]}},
{"type":"Feature","properties":{"amenity":"restaurant","name":"New London Style Pizza"},"geometry": {"type":"Point","coordinates": [-71.47309389999999, 42.4764004]}},
{"type":"Feature","properties":{"amenity":"restaurant","name":"Sorrento's","cuisine":"pizza"},"geometry": {"type":"Point","coordinates": [-71.4539446, 42.4736212]}},
{"type":"Feature","properties":{"amenity":"cafe","name":"Starbuck's"},"geometry": {"type":"Point","coordinates": [-71.451705, 42.474926]}},
{"type":"Feature","properties":{"name":"Office of Michael Rosenfeld, Inc., Architects","shop":"architect"},"geometry": {"type":"Point","coordinates": [-71.4720828, 42.4762369]}},
{"type":"Feature","properties":{"name":"K-mart","shop":"department_store"},"geometry": {"type":"Point","coordinates": [-71.455827, 42.473812]}},
{"type":"Feature","properties":{"name":"AAA Southern NE","shop":"travel_agency"},"geometry": {"type":"Point","coordinates": [-71.4518515, 42.4749463]}},
{"type":"Feature","properties":{"board_type":"notice","name":"Guggins Brook","information":"board","tourism":"information","description":"trail map and rules"},"geometry": {"type":"Point","coordinates": [-71.4845151, 42.4778735]}},
{"type":"Feature","properties":{"shop":"convenience"},"geometry": {"type":"Point","coordinates": [-71.47281030000001, 42.476327]}},
{"type":"Feature","properties":{"name":"Sal's","shop":"car_repair"},"geometry": {"type":"Point","coordinates": [-71.47528010000001, 42.4730943]}},
{"type":"Feature","properties":{"amenity":"bank","atm":"yes","name":"Bank North"},"geometry": {"type":"Point","coordinates": [-71.4520031, 42.4744767]}},
{"type":"Feature","properties":{"amenity":"bank","name":"TD Bank"},"geometry": {"type":"Point","coordinates": [-71.4513413, 42.4743947]}},
{"type":"Feature","properties":{"name":"Pet Smart","shop":"pet"},"geometry": {"type":"Point","coordinates": [-71.4505546, 42.4752874]}},
{"type":"Feature","properties":{"name":"kiosk","tourism":"information"},"geometry": {"type":"Point","coordinates": [-71.4660184, 42.4974857]}},
{"type":"Feature","properties":{"amenity":"fast_food","name":"Subway"},"geometry": {"type":"Point","coordinates": [-71.453844, 42.4739028]}},
{"type":"Feature","properties":{"amenity":"bank","name":"Santander"},"geometry": {"type":"Point","coordinates": [-71.45182200000001, 42.475573]}},
{"type":"Feature","properties":{"amenity":"restaurant","addr:street":"Main Street","addr:state":"MA","name":"Orange Leaf","addr:postcode":"01720","cuisine":"Frozen_Yogurt","addr:city":"Acton","addr:housenumber":"255A"},"geometry": {"type":"Point","coordinates": [-71.4538842, 42.473853]}},
{"type":"Feature","properties":{"amenity":"dentist","addr:street":"Main Street","addr:state":"MA","name":"Ratti Handa DMD","addr:postcode":"01720","addr:city":"Acton","addr:housenumber":"255"},"geometry": {"type":"Point","coordinates": [-71.4539022, 42.4737558]}}]
}
